{"type": "FeatureCollection", "features": [ {"type": "Feature", "properties": {"norad_id": 31898, "name": "FENGYUN 1C DEB", "group": "fengyun-1c-debris", "lat": 39.89731435224905, "lon": -146.40702093429636, "alt_km": 751.1052144060814, "timestamp": "2025-12-21T14:40:48.201546+00:00", "meta": {"OBJECT_NAME": "FENGYUN 1C DEB", "OBJECT_ID": "1999-025CKZ", "EPOCH": "2025-12-20T09:03:23.166144", "MEAN_MOTION": 14.68533537, "ECCENTRICITY": 0.01439518, "INCLINATION": 98.707, "RA_OF_ASC_NODE": 219.6404, "ARG_OF_PERICENTER": 195.5546, "MEAN_ANOMALY": 164.1211, "EPHEMERIS_TYPE": 0, "CLASSIFICATION_TYPE": "U", "NORAD_CAT_ID": 31898, "ELEMENT_SET_NO": 999, "REV_AT_EPOCH": 65824, "BSTAR": 0.00069711283, "MEAN_MOTION_DOT": 4.672e-05, "MEAN_MOTION_DDOT": 0}, "tle": {"line1": "1 31898U 99025CKZ 25354.37735146  .00004672  00000+0  69711-3 0  9994", "line2": "2 31898  98.7070 219.6404 0143951 195.5546 164.1211 14.68533537658242"}}, "geometry": {"type": "Point", "coordinates": [-146.40702093429636, 39.89731435224905]}}, {"type": "Feature", "properties": {"norad_id": 31899, "name": "FENGYUN 1C DEB", "group": "fengyun-1c-debris", "lat": -77.76633717645926, "lon": 159.91542724560887, "alt_km": 1046.2906549494073, "timestamp": "2025-12-21T14:40:48.201556+00:00", "meta": {"OBJECT_NAME": "FENGYUN 1C DEB", "OBJECT_ID": "1999-025CLA", "EPOCH": "2025-12-15T22:01:47.871552", "MEAN_MOTION": 13.83525889, "ECCENTRICITY": 0.01826858, "INCLINATION": 102.0836, "RA_OF_ASC_NODE": 53.7231, "ARG_OF_PERICENTER": 150.0114, "MEAN_ANOMALY": 211.1643, "EPHEMERIS_TYPE": 0, "CLASSIFICATION_TYPE": "U", "NORAD_CAT_ID": 31899, "ELEMENT_SET_NO": 999, "REV_AT_EPOCH": 67608, "BSTAR": 0.0010397017, "MEAN_MOTION_DOT": 1.238e-05, "MEAN_MOTION_DDOT": 0}, "tle": {"line1": "1 31899U 99025CLA 25349.91791518  .00001238  00000+0  10397-2 0  9994", "line2": "2 31899 102.0836  53.7231 0182685 150.0114 211.1643 13.83525889676082"}}, "geometry": {"type": "Point", "coordinates": [159.91542724560887, -77.76633717645926]}}, {"type": "Feature", "properties": {"norad_id": 31901, "name": "FENGYUN 1C DEB", "group": "fengyun-1c-debris", "lat": -13.689966706386658, "lon": -41.718571790503994, "alt_km": 1014.5824641708377, "timestamp": "2025-12-21T14:40:48.201566+00:00", "meta": {"OBJECT_NAME": "FENGYUN 1C DEB", "OBJECT_ID": "1999-025CLC", "EPOCH": "2025-12-20T04:17:55.981824", "MEAN_MOTION": 13.94145589, "ECCENTRICITY": 0.01316076, "INCLINATION": 98.6014, "RA_OF_ASC_NODE": 314.8342, "ARG_OF_PERICENTER": 168.8836, "MEAN_ANOMALY": 191.5284, "EPHEMERIS_TYPE": 0, "CLASSIFICATION_TYPE": "U", "NORAD_CAT_ID": 31901, "ELEMENT_SET_NO": 999, "REV_AT_EPOCH": 63511, "BSTAR": 0.00026102063, "MEAN_MOTION_DOT": 3.32e-06, "MEAN_MOTION_DDOT": 0}, "tle": {"line1": "1 31901U 99025CLC 25354.17912016  .00000332  00000+0  26102-3 0  9996", "line2": "2 31901  98.6014 314.8342 0131607 168.8836 191.5284 13.94145589635112"}}, "geometry": {"type": "Point", "coordinates": [-41.718571790503994, -13.689966706386658]}}, {"type": "Feature", "properties": {"norad_id": 31902, "name": "FENGYUN 1C DEB", "group": "fengyun-1c-debris", "lat": -47.21825417879139, "lon": 145.88931234647657, "alt_km": 851.2920268394892, "timestamp": "2025-12-21T14:40:48.201577+00:00", "meta": {"OBJECT_NAME": "FENGYUN 1C DEB", "OBJECT_ID": "1999-025CLD", "EPOCH": "2025-12-19T10:01:59.860416", "MEAN_MOTION": 14.23285177, "ECCENTRICITY": 0.0181097, "INCLINATION": 98.5083, "RA_OF_ASC_NODE": 333.0765, "ARG_OF_PERICENTER": 129.7796, "MEAN_ANOMALY": 22.7158, "EPHEMERIS_TYPE": 0, "CLASSIFICATION_TYPE": "U", "NORAD_CAT_ID": 31902, "ELEMENT_SET_NO": 999, "REV_AT_EPOCH": 64886, "BSTAR": 0.00014609, "MEAN_MOTION_DOT": 3.49e-06, "MEAN_MOTION_DDOT": 0}, "tle": {"line1": "1 31902U 99025CLD 25353.41805394  .00000349  00000+0  14609-3 0  9990", "line2": "2 31902  98.5083 333.0765 0181097 129.7796  22.7158 14.23285177648861"}}, "geometry": {"type": "Point", "coordinates": [145.88931234647657, -47.21825417879139]}}, {"type": "Feature", "properties": {"norad_id": 31903, "name": "FENGYUN 1C DEB", "group": "fengyun-1c-debris", "lat": -3.6023000732441974, "lon": 164.49623717288335, "alt_km": 786.01392030445, "timestamp": "2025-12-21T14:40:48.201597+00:00", "meta": {"OBJECT_NAME": "FENGYUN 1C DEB", "OBJECT_ID": "1999-025CLE", "EPOCH": "2025-12-18T10:12:48.871296", "MEAN_MOTION": 14.60534714, "ECCENTRICITY": 0.01297033, "INCLINATION": 99.274, "RA_OF_ASC_NODE": 341.5214, "ARG_OF_PERICENTER": 18.8329, "MEAN_ANOMALY": 341.7601, "EPHEMERIS_TYPE": 0, "CLASSIFICATION_TYPE": "U", "NORAD_CAT_ID": 31903, "ELEMENT_SET_NO": 999, "REV_AT_EPOCH": 97478, "BSTAR": 0.00066496569, "MEAN_MOTION_DOT": 3.571e-05, "MEAN_MOTION_DDOT": 0}, "tle": {"line1": "1 31903U 99025CLE 25352.42556564  .00003571  00000+0  66497-3 0  9995", "line2": "2 31903  99.2740 341.5214 0129703  18.8329 341.7601 14.60534714974784"}}, "geometry": {"type": "Point", "coordinates": [164.49623717288335, -3.6023000732441974]}}, {"type": "Feature", "properties": {"norad_id": 31905, "name": "FENGYUN 1C DEB", "group": "fengyun-1c-debris", "lat": 52.14145379997253, "lon": 164.3266544272072, "alt_km": 700.8323517660865, "timestamp": "2025-12-21T14:40:48.201609+00:00", "meta": {"OBJECT_NAME": "FENGYUN 1C DEB", "OBJECT_ID": "1999-025CLG", "EPOCH": "2025-12-20T04:35:49.654752", "MEAN_MOTION": 14.3312814, "ECCENTRICITY": 0.01968476, "INCLINATION": 99.151, "RA_OF_ASC_NODE": 330.8578, "ARG_OF_PERICENTER": 72.4071, "MEAN_ANOMALY": 289.8507, "EPHEMERIS_TYPE": 0, "CLASSIFICATION_TYPE": "U", "NORAD_CAT_ID": 31905, "ELEMENT_SET_NO": 999, "REV_AT_EPOCH": 96731, "BSTAR": 0.00040693181, "MEAN_MOTION_DOT": 1.332e-05, "MEAN_MOTION_DDOT": 0}, "tle": {"line1": "1 31905U 99025CLG 25354.19154693  .00001332  00000+0  40693-3 0  9993", "line2": "2 31905  99.1510 330.8578 0196847  72.4071 289.8507 14.33128140967317"}}, "geometry": {"type": "Point", "coordinates": [164.3266544272072, 52.14145379997253]}}, {"type": "Feature", "properties": {"norad_id": 31906, "name": "FENGYUN 1C DEB", "group": "fengyun-1c-debris", "lat": -25.044336191233803, "lon": -55.45751361004616, "alt_km": 825.1868759492936, "timestamp": "2025-12-21T14:40:48.201619+00:00", "meta": {"OBJECT_NAME": "FENGYUN 1C DEB", "OBJECT_ID": "1999-025CLH", "EPOCH": "2025-12-20T21:28:17.183712", "MEAN_MOTION": 14.24721078, "ECCENTRICITY": 0.00507, "INCLINATION": 98.6922, "RA_OF_ASC_NODE": 127.9318, "ARG_OF_PERICENTER": 100.7434, "MEAN_ANOMALY": 28.3985, "EPHEMERIS_TYPE": 0, "CLASSIFICATION_TYPE": "U", "NORAD_CAT_ID": 31906, "ELEMENT_SET_NO": 999, "REV_AT_EPOCH": 95245, "BSTAR": 0.0015178, "MEAN_MOTION_DOT": 3.539e-05, "MEAN_MOTION_DDOT": 0}, "tle": {"line1": "1 31906U 99025CLH 25354.89464333  .00003539  00000+0  15178-2 0  9996", "line2": "2 31906  98.6922 127.9318 0050700 100.7434  28.3985 14.24721078952455"}}, "geometry": {"type": "Point", "coordinates": [-55.45751361004616, -25.044336191233803]}}, {"type": "Feature", "properties": {"norad_id": 31910, "name": "FENGYUN 1C DEB", "group": "fengyun-1c-debris", "lat": 79.86755041885284, "lon": -32.889194369816046, "alt_km": 608.5393398648175, "timestamp": "2025-12-21T14:40:48.201630+00:00", "meta": {"OBJECT_NAME": "FENGYUN 1C DEB", "OBJECT_ID": "1999-025CLM", "EPOCH": "2025-12-17T20:43:15.461760", "MEAN_MOTION": 14.47683879, "ECCENTRICITY": 0.02282306, "INCLINATION": 97.6653, "RA_OF_ASC_NODE": 12.6118, "ARG_OF_PERICENTER": 139.661, "MEAN_ANOMALY": 222.1768, "EPHEMERIS_TYPE": 0, "CLASSIFICATION_TYPE": "U", "NORAD_CAT_ID": 31910, "ELEMENT_SET_NO": 999, "REV_AT_EPOCH": 64443, "BSTAR": 0.00051438497, "MEAN_MOTION_DOT": 2.591e-05, "MEAN_MOTION_DDOT": 0}, "tle": {"line1": "1 31910U 99025CLM 25351.86337340  .00002591  00000+0  51438-3 0  9999", "line2": "2 31910  97.6653  12.6118 0228230 139.6610 222.1768 14.47683879644430"}}, "geometry": {"type": "Point", "coordinates": [-32.889194369816046, 79.86755041885284]}}, {"type": "Feature", "properties": {"norad_id": 31913, "name": "FENGYUN 1C DEB", "group": "fengyun-1c-debris", "lat": -40.750600765403114, "lon": 88.49696961544696, "alt_km": 871.6335503122427, "timestamp": "2025-12-21T14:40:48.201640+00:00", "meta": {"OBJECT_NAME": "FENGYUN 1C DEB", "OBJECT_ID": "1999-025CLQ", "EPOCH": "2025-12-18T01:01:43.581792", "MEAN_MOTION": 13.91276253, "ECCENTRICITY": 0.0205137, "INCLINATION": 99.2939, "RA_OF_ASC_NODE": 273.034, "ARG_OF_PERICENTER": 298.918, "MEAN_ANOMALY": 59.154, "EPHEMERIS_TYPE": 0, "CLASSIFICATION_TYPE": "U", "NORAD_CAT_ID": 31913, "ELEMENT_SET_NO": 999, "REV_AT_EPOCH": 55960, "BSTAR": 0.0052171572, "MEAN_MOTION_DOT": 7.764e-05, "MEAN_MOTION_DDOT": 0}, "tle": {"line1": "1 31913U 99025CLQ 25352.04286553  .00007764  00000+0  52172-2 0  9994", "line2": "2 31913  99.2939 273.0340 0205137 298.9180  59.1540 13.91276253559602"}}, "geometry": {"type": "Point", "coordinates": [88.49696961544696, -40.750600765403114]}}, {"type": "Feature", "properties": {"norad_id": 31914, "name": "FENGYUN 1C DEB", "group": "fengyun-1c-debris", "lat": -78.84116875568411, "lon": -86.9427183427997, "alt_km": 788.7803788551937, "timestamp": "2025-12-21T14:40:48.201650+00:00", "meta": {"OBJECT_NAME": "FENGYUN 1C DEB", "OBJECT_ID": "1999-025CLR", "EPOCH": "2025-12-20T20:54:57.034080", "MEAN_MOTION": 14.55723223, "ECCENTRICITY": 0.0182918, "INCLINATION": 99.0262, "RA_OF_ASC_NODE": 218.5662, "ARG_OF_PERICENTER": 44.7439, "MEAN_ANOMALY": 316.8346, "EPHEMERIS_TYPE": 0, "CLASSIFICATION_TYPE": "U", "NORAD_CAT_ID": 31914, "ELEMENT_SET_NO": 999, "REV_AT_EPOCH": 68591, "BSTAR": 0.00010727, "MEAN_MOTION_DOT": 5.23e-06, "MEAN_MOTION_DDOT": 0}, "tle": {"line1": "1 31914U 99025CLR 25354.87149345  .00000523  00000+0  10727-3 0  9992", "line2": "2 31914  99.0262 218.5662 0182918  44.7439 316.8346 14.55723223685912"}}, "geometry": {"type": "Point", "coordinates": [-86.9427183427997, -78.84116875568411]}}]}